LEMUR-1                 
1 40044U 14033AL  26156.36921819  .00002706  00000+0  31518-3 0  9997
2 40044  97.7870 306.4384 0049647 116.3277 244.3049 14.85195828643715
LEMUR-2-GREENBERG       
1 42837U 17042N   26156.45426017  .00017915  00000+0  60014-3 0  9993
2 42837  97.3818 337.1368 0009624  53.8754 306.3377 15.30947383486590
LEMUR-2-ANDIS           
1 42838U 17042P   26156.44481692  .00022827  00000+0  68644-3 0  9998
2 42838  97.3680 337.2719 0009170  53.7295 306.4794 15.34356463486652
LEMUR-2-MONSON          
1 42839U 17042Q   26156.43777568  .00016073  00000+0  59569-3 0  9990
2 42839  97.4080 337.1100 0007298  46.0662 314.1179 15.27686603486379
LEMUR-2-FURIAUS         
1 42840U 17042R   26156.83214778  .00024013  00000+0  83028-3 0  9995
2 42840  97.3772 335.4941 0008564 103.6224 256.5971 15.29868130486472
LEMUR-2-PETERG          
1 42841U 17042S   26156.48690796  .00025837  00000+0  80093-3 0  9999
2 42841  97.3993 341.5028 0004191  39.2276 320.9270 15.33398658486640
LEMUR-2-DEMBITZ         
1 42842U 17042T   26156.46003299  .00017257  00000+0  59698-3 0  9998
2 42842  97.3826 338.1388 0007653  66.5488 293.6557 15.29927304486556
LEMUR-2-ZACHARY         
1 42845U 17042W   26156.50316516  .00045332  00000+0  82942-3 0  9998
2 42845  97.3611 347.8997 0003667  73.1159 287.0494 15.49216981487398
LEMUR-2-AMANDA-SVANTE   
1 48269U 21034B   26156.94183103  .00044733  00000+0  13727-2 0  9990
2 48269  97.5761 234.9365 0000946 259.6521 100.4614 15.33609946279333
LEMUR-2-SPECIAL-K       
1 48273U 21034F   26155.72710013  .00134550  00000+0  15811-2 0  9999
2 48273  97.5656 241.7174 0002667 238.8592 121.2404 15.60998083279740
LEMUR-2-DEVERILL-M-T    
1 57391U 23100F   26156.34028045  .00023881  00000+0  61678-3 0  9999
2 57391  99.4476 191.6837 0007391  86.6907 273.5178 15.39139085159425
LEMUR-2-BASS            
1 58259U 23174D   26156.47146315  .00017794  00000+0  40922-3 0  9994
2 58259  97.3843 241.0242 0006775 201.0261 159.0709 15.42692487143554
LEMUR-2-JK0903EM1407    
1 58336U 23174CJ  26155.24326317  .00028456  00000+0  49056-3 0  9990
2 58336  97.3910 245.3579 0005884 155.2357 204.9178 15.50993821143725
LEMUR-2-MJR092620       
1 58340U 23174CN  26156.49811578  .00019563  00000+0  42412-3 0  9999
2 58340  97.3971 246.3169 0006890 152.0728 208.0891 15.44429217143844
LEMUR-2-VALHALLA        
1 58900U 24022B   26156.83027861  .00020944  00000+0  53716-3 0  9990
2 58900  97.4117   6.6882 0010390 147.4200 212.7689 15.39318995130523
LEMUR-2-OBA-NI-JESU     
1 58902U 24022D   26156.39573582  .00770793  29383-3  12452-2 0  9993
2 58902  97.3760  20.6257 0004416 178.9245 181.2045 16.03522774131431
LEMUR-2-CAEL            
1 58903U 24022E   26156.39493665  .00016700  00000+0  41195-3 0  9996
2 58903  97.4098   7.1635 0009015 132.5023 227.6986 15.40570718130526
LEMUR-2-JOHNNYTRUONG    
1 59146U 24043BA  26156.66841526  .00039077  00000+0  49113-3 0  9992
2 59146  97.5379 307.6665 0004372 211.8335 148.2658 15.59585052126243
LEMUR-2-TOMATOKECHUP    
1 60471U 24149D   26156.96668753  .00014737  00000+0  42518-3 0  9992
2 60471  97.3796 238.9874 0000404 214.8468 145.2749 15.35794505100448
LEMUR-2-STELLA          
1 60533U 24149BT  26155.17398638  .00013309  00000+0  78866-3 0  9994
2 60533  97.6733 237.5749 0001851 101.9080 258.2357 15.11514040 98534
LEMUR-2-AHMED-ASRAR     
1 60576U 24149DN  26156.05627947  .00015334  00000+0  88520-3 0  9995
2 60576  97.6998 240.9433 0002659  70.4526 289.6991 15.12426387 98735
LEMUR-2-SQUIRRELCOMM    
1 60578U 24149DQ  26156.96833989  .00009060  00000+0  60820-3 0  9994
2 60578  97.6705 237.9155 0006805  92.8973 267.3033 15.07024404 98717
LEMUR-2-SIERRINI        
1 60579U 24149DR  26156.95882314  .00015851  00000+0  95912-3 0  9995
2 60579  97.6841 239.5040 0004842 198.7308 161.3744 15.10707547 98764
LEMUR-2-WILSON          
1 62694U 25009CP  26156.45007931  .00002377  00000+0  22192-3 0  9999
2 62694  97.7029 235.1214 0004888  82.8178 277.3598 14.95116769 75601
LEMUR-2-STAR-FOX        
1 62696U 25009CR  26156.50420311  .00009074  00000+0  69076-3 0  9991
2 62696  97.6940 238.1986 0002621 144.3761 215.7639 15.02317388 75801
LEMUR-2-ARIANNA         
1 62699U 25009CU  26156.50239375  .00009394  00000+0  71525-3 0  9999
2 62699  97.6877 237.9804 0002868 151.7234 208.4147 15.02299720 75801
